IRIDIUM 119             
1 42959U 17061E   23327.27502930  .00000481  00000+0  16479-3 0  9991
2 42959  86.3990  56.7850 0002060 106.4023 253.7399 14.34218829320523
IRIDIUM 107             
1 42960U 17061F   23327.29405936  .00000489  00000+0  16753-3 0  9996
2 42960  86.3991  56.7926 0002289 101.8504 258.2949 14.34222199320533
IRIDIUM 132             
1 42961U 17061G   23327.30040090  .00000488  00000+0  16719-3 0  9996
2 42961  86.3988  56.7757 0002422 104.4741 255.6724 14.34220734320538
IRIDIUM 136             
1 42962U 17061H   23327.33210175  .00000481  00000+0  16467-3 0  9996
2 42962  86.3989  56.7648 0001867 101.1511 258.9895 14.34224138320559
IRIDIUM 139             
1 42963U 17061J   23327.33845447  .00000463  00000+0  15827-3 0  9992
2 42963  86.3991  56.8093 0002304 100.8811 259.2644 14.34221436320569
IRIDIUM 125             
1 42964U 17061K   23327.32579963  .00000504  00000+0  17293-3 0  9994
2 42964  86.3992  56.8585 0002127 107.8628 252.2800 14.34218947320574
IRIDIUM 135             
1 43070U 17083A   23327.57897201  .00000441  00000+0  15040-3 0  9990
2 43070  86.3976 353.4654 0002405  89.1174 271.0297 14.34218328309901
IRIDIUM 138             
1 43071U 17083B   23327.60434381  .00000442  00000+0  15069-3 0  9993
2 43071  86.3965 353.1980 0002102  98.5075 261.6359 14.34221841309893
